ONEWEB-0603             
1 54667U 22166AB  23001.00001157 -.00884749  00000+0 -15854+0 0  9998
2 54667  86.5622 148.2511 0009189 158.3317 192.9416 14.69882920  4179
ONEWEB-0604             
1 54668U 22166AC  22365.66667824 -.00867056  00000+0 -14097+0 0  9992
2 54668  86.4522 148.3118 0008563 157.5066 318.0167 14.74047885  4127
ONEWEB-0605             
1 54669U 22166AD  22365.66667824 -.00850355  00000+0 -15086+0 0  9996
2 54669  86.5697 148.4000 0008365 162.4208 208.9787 14.70212100  4121
ONEWEB-0606             
1 54670U 22166AE  22365.66667824 -.00856031  00000+0 -13655+0 0  9995
2 54670  86.4572 148.3102 0008849 155.8130 347.0431 14.74827099  4127
ONEWEB-0607             
1 54671U 22166AF  22365.66667824 -.00866050  00000+0 -13679+0 0  9994
2 54671  86.5814 148.3660 0009010 156.7322  13.8888 14.75281384  4127
ONEWEB-0608             
1 54672U 22166AG  23001.00001157 -.00910954  00000+0 -13549+0 0  9991
2 54672  86.6054 148.2218 0013273 154.2925 100.4704 14.77932501  4172
ONEWEB-0610             
1 54673U 22166AH  23001.00001157 -.00850714  00000+0 -13315+0 0  9990
2 54673  86.4643 148.1542 0009652 153.4027 345.1060 14.75613974  4175
ONEWEB-0611             
1 54674U 22166AJ  23001.00001157 -.00894715  00000+0 -13793+0 0  9990
2 54674  86.4694 148.1539 0012342 149.7383  51.9761 14.76372469  4173
ONEWEB-0612             
1 54675U 22166AK  23001.00001157 -.00914234  00000+0 -15362+0 0  9994
2 54675  86.4336 148.1658 0008229 158.1753 267.3618 14.72786766  4172
ONEWEB-0615             
1 54676U 22166AL  22365.66667824 -.00845071  00000+0 -13052+0 0  9994
2 54676  86.4626 148.3027 0010881 151.4992  49.8449 14.76149669  4124
ONEWEB-0655             
1 54677U 22166AM  23001.00001157 -.00893769  00000+0 -13962+0 0  9999
2 54677  86.4611 148.1465 0010681 151.4812  18.5945 14.75825039  4172
ONEWEB-0659             
1 54678U 22166AN  23001.00001157 -.01206824  00000+0 -14265+0 0  9998
2 54678  86.5424 148.1482 0010984 150.3769 259.4224 14.87816594  4186
ONEWEB-0685             
1 54679U 22166AP  23001.00001157 -.00858283  00000+0 -14236+0 0  9998
2 54679  86.4585 148.1705 0008462 159.0966 252.9617 14.73159121  4179
ONEWEB-0712             
1 54680U 22166AQ  22365.84717894 -.00359023  00000+0 -38401-1 0  9996
2 54680  86.5227 148.2123 0011516 151.3587 208.8275 14.90821873  4155
ONEWEB-0714             
1 54681U 22166AR  22365.77658475 -.00098829  00000+0 -98994-2 0  9996
2 54681  86.5190 148.2382 0012605 163.2484 196.9163 14.91971865  4140
2022-167A               
1 54682U 22167A   22365.88836478  .00010054  00000+0  63757-3 0  9993
2 54682  97.5354 140.4795 0014305 183.9600 297.1532 15.09027979  3416
2022-167B               
1 54683U 22167B   22365.84557182  .00045550  00000+0  50415-3 0  9998
2 54683  97.5872 141.7554 0200511 244.2789 113.7851 15.42050762  3458
CAS-5A (FO-118)         
1 54684U 22167C   22365.61798023  .00007627  00000+0  48448-3 0  9991
2 54684  97.5382 140.2242 0014425 187.1267 272.3743 15.09048994  3365
2022-167D               
1 54685U 22167D   22365.88390319  .00005553  00000+0  34875-3 0  9992
2 54685  97.5431 140.5201 0013463 198.4963 313.6386 15.09601715  3401
2022-167E               
1 54686U 22167E   22365.88396208  .00005545  00000+0  34831-3 0  9999
2 54686  97.5389 140.5079 0013178 198.6241 313.5336 15.09597427  3409
2022-167F               
1 54687U 22167F   22365.88273591  .00009351  00000+0  58195-3 0  9997
2 54687  97.5377 140.5070 0013731 199.3817 312.6566 15.09744710  3404
2022-167G               
1 54688U 22167G   22365.88127451  .00009558  00000+0  59272-3 0  9997
2 54688  97.5353 140.5010 0014039 199.9391 311.9302 15.09863345  3404
2022-167H               
1 54689U 22167H   22365.88208333  .00005591  00000+0  34986-3 0  9995
2 54689  97.5452 140.5290 0014260 199.6829 312.4521 15.09722857  3405
2022-167J               
1 54690U 22167J   22365.87976898  .00005833  00000+0  36322-3 0  9999
2 54690  97.5332 140.4978 0014625 202.1242 309.6056 15.09875871  3406
2022-167K               
1 54691U 22167K   22365.88090553  .00009560  00000+0  59343-3 0  9995
2 54691  97.5404 140.5162 0014768 199.9875 311.8387 15.09819255  3402
2022-167L               
1 54692U 22167L   22365.87965760  .00005838  00000+0  36341-3 0  9993
2 54692  97.5444 140.5287 0015272 201.4770 310.2493 15.09882694  3407
2022-167M               
1 54693U 22167M   22365.88723170  .00011154  00000+0  70585-3 0  9998
2 54693  97.5411 140.4948 0014659 184.2468 292.4790 15.09072214  3371
2022-167N               
1 54694U 22167N   22365.87801750  .00006033  00000+0  37426-3 0  9996
2 54694  97.5355 140.5063 0015349 202.7796 308.8281 15.09994006  3408
2022-167P               
1 54695U 22167P   22365.87952478  .00006070  00000+0  37641-3 0  9991
2 54695  97.5400 140.5200 0015812 202.1432 317.8318 15.09995960  3400
FALCON 9 R/B            
1 54698U 22168C   22345.32368031  .00002049 -64822-5  00000+0 0  9995
2 54698  29.0000  41.2312 0098300  59.8200  27.0300 16.15592824    07
2022-169A               
1 54699U 22169A   22365.00675926  .00010149  00000+0  40712-2 0  9996
2 54699  59.9959  95.4960 0004429 267.1584  95.6265 14.28674730  2665
2022-169B               
1 54700U 22169B   22365.99186995 -.00000003  00000+0  52793-4 0  9993
2 54700  59.9962  92.2905 0006558 257.1030 102.9271 14.28669954  2803
2022-169C               
1 54701U 22169C   22365.91739906  .00000170  00000+0  80999-4 0  9995
2 54701  59.9574  90.2286 0095280  56.3039 304.7049 14.49502437  2834
2022-169D               
1 54702U 22169D   22365.56613739  .00000501  00000+0  25031-3 0  9995
2 54702  59.9984  93.6549 0005973 269.5721  90.4608 14.29150718  2755
SZ-14 MODULE            
1 54704U 22060G   22365.76736505  .00025708  00000+0  29698-3 0  9995
2 54704  41.4878  96.0003 0009083 262.2293 237.8706 15.61251854  4014
GALAXY 35 (G-35)        
1 54741U 22170A   22365.76575094  .00000141  00000+0  00000+0 0  9998
2 54741   0.0411 199.8420 0002053 169.6166 216.3004  1.00270646   234
GALAXY 36 (G-36)        
1 54742U 22170B   22365.57666226  .00000140  00000+0  00000+0 0  9995
2 54742   0.0184  48.1853 0001940 220.2048 249.2162  1.00273895   245
METEOSAT-12 (MTG-1)     
1 54743U 22170C   22353.31524981 -.00000002  00000+0  00000+0 0  9994
2 54743   5.5504 217.8990 7131836 181.4542 110.3708  2.25104636   115
ARIANE 5 DEB [SYLDA]    
1 54744U 22170D   22362.47558301  .00019359  00000+0  48906-2 0  9999
2 54744   5.9816 212.9323 7277424 190.0227 137.2739  2.28861921   327
ARIANE 5 R/B            
1 54745U 22170E   22361.54777604  .00004540  00000+0  84527-3 0  9992
2 54745   5.7426 215.2605 7276934 187.1761 149.0086  2.29704568   316
2022-171A               
1 54746U 22171A   22365.09768494 -.00000037  00000+0  00000+0 0  9993
2 54746  34.9924 232.5734 0007440  37.8294  92.2336 15.22372274  2498
2022-171B               
1 54747U 22171B   22365.35686247  .00021639  00000+0  87080-3 0  9995
2 54747  34.9971 230.8028 0006974  45.8850 120.5691 15.23980558  2508
2022-171C               
1 54748U 22171C   22365.09592520 -.00000037  00000+0  00000+0 0  9990
2 54748  34.9951 232.5613 0005986 100.7672  28.8903 15.22258883  2460
2022-171D               
1 54749U 22171D   22365.35322193  .00024452  00000+0  97146-3 0  9994
2 54749  34.9967 230.7675 0007388  54.1359 113.7847 15.24387382  2503
2022-171E               
1 54750U 22171E   22365.94516191 -.00000038  00000+0  00000+0 0  9998
2 54750  34.9935 227.1907 0011293  54.9652  69.6604 15.22313808  2580
2022-167Q               
1 54751U 22167Q   22365.87501830  .00007466  00000+0  46469-3 0  9994
2 54751  97.5367 140.4984 0013902 200.7296 276.8352 15.09810316  3068
SHIYAN 21               
1 54752U 22172A   22365.85718750  .00008953  00000+0  32319-3 0  9991
2 54752  36.0019  57.3060 0012548  78.9759 257.8127 15.27815686  2384
SWOT                    
1 54754U 22173A   23001.01505834  .00138016  00000+0  76186-1 0  9999
2 54754  77.5875 304.7541 0004461  48.8070  23.6952 14.10447533  2182
O3B MPOWER-A F1         
1 54755U 22174A   22356.18260191  .00000047  00000+0  00000+0 0  9997
2 54755   9.6319 253.0871 1859317 195.2651 337.7567  7.25479946   387
O3B MPOWER-A F2         
1 54756U 22174B   22363.51609980  .00000048  00000+0  00000+0 0  9997
2 54756   9.6158 242.5502 1870577 216.2064  75.3167  7.26305970   901
FALCON 9 R/B            
1 54757U 22174C   22363.39930934  .00000051  00000+0  19909-2 0  9995
2 54757   9.6155 242.6686 1870445 215.9316 129.9431  7.26306030   888
STARLINK-5464           
1 54758U 22175A   22365.66667824 -.00042781  00000+0 -30122-3 0  9993
2 54758  53.2151 237.6021 0001352  25.9833 137.7272 15.73255763   643
STARLINK-5215           
1 54759U 22175B   22365.58334491 -.00013178  00000+0 -89550-4 0  9994
2 54759  53.2147 238.0086 0001450  46.2464   7.0306 15.73217139  1306
STARLINK-5220           
1 54760U 22175C   22365.66667824  .00046218  00000+0  33240-3 0  9997
2 54760  53.2150 237.5997 0001225  94.9911  69.9884 15.73165372  1910
STARLINK-5202           
1 54761U 22175D   22365.58334491 -.00023481  00000+0 -16329-3 0  9998
2 54761  53.2149 238.0120 0001064  86.6926 325.5099 15.73209301  1301
STARLINK-5214           
1 54762U 22175E   22365.66667824 -.00051565  00000+0 -36455-3 0  9993
2 54762  53.2149 237.5948 0001185  99.9075  66.8550 15.73244259  1915
STARLINK-5191           
1 54763U 22175F   23001.00001157 -.00027615  00000+0 -19342-3 0  9996
2 54763  53.2148 235.9495 0001487  76.3056 178.8082 15.73147141  1968
STARLINK-5458           
1 54764U 22175G   23001.00001157  .00034041  00000+0  24612-3 0  9992
2 54764  53.2145 235.9454 0001419  83.3323 173.5188 15.73186418  1960
STARLINK-5466           
1 54765U 22175H   22365.66667824  .00024094  00000+0  17582-3 0  9991
2 54765  53.2148 237.5935 0001413  97.0870  70.3134 15.73169224  1937
